start=new Date('2021-12-29T00:00:00.000Z').valueOf();
sats=[{"FILE":"3254265","SITE":"AFETR","COUNTRY_CODE":"US","MEAN_MOTION_DDOT":"0.0000000000000","DECAY_DATE":null,"CLASSIFICATION_TYPE":"U","ARG_OF_PERICENTER":"79.9417","ELEMENT_SET_NO":"999","GP_ID":"192674253","CENTER_NAME":"EARTH","APOAPSIS":"548.822","EPHEMERIS_TYPE":"0","ECCENTRICITY":"0.00023260","MEAN_MOTION":"15.06400941","OBJECT_ID":"2020-070L","BSTAR":"0.00003675100000","MEAN_ELEMENT_THEORY":"SGP4","MEAN_ANOMALY":"280.1835","REV_AT_EPOCH":"6862","PERIOD":"95.592","MEAN_MOTION_DOT":"0.00000266","LAUNCH_DATE":"2020-10-06","PERIAPSIS":"545.600","REF_FRAME":"TEME","OBJECT_TYPE":"PAYLOAD","TLE_LINE2":"2 46542  53.0532 213.0960 0002326  79.9417 280.1835 15.06400941 68621","NORAD_CAT_ID":"46542","SEMIMAJOR_AXIS":"6925.346","OBJECT_NAME":"STARLINK-1692","TIME_SYSTEM":"UTC","RA_OF_ASC_NODE":"213.0960","TLE_LINE1":"1 46542U 20070L   21362.89953526  .00000266  00000-0  36751-4 0  9991","RCS_SIZE":"LARGE","INCLINATION":"53.0532","EPOCH":"2021-12-28T21:35:19.846464"},{"TLE_LINE1":"1 46543U 20070M   21362.88479718  .00000387  00000-0  44890-4 0  9994","RA_OF_ASC_NODE":"213.1527","RCS_SIZE":"LARGE","NORAD_CAT_ID":"46543","TLE_LINE2":"2 46543  53.0533 213.1527 0002086  77.0717 283.0505 15.06395156 68625","SEMIMAJOR_AXIS":"6925.363","OBJECT_NAME":"STARLINK-1693","TIME_SYSTEM":"UTC","EPOCH":"2021-12-28T21:14:06.476352","INCLINATION":"53.0533","REV_AT_EPOCH":"6862","MEAN_ANOMALY":"283.0505","REF_FRAME":"TEME","OBJECT_TYPE":"PAYLOAD","PERIOD":"95.592","MEAN_MOTION_DOT":"0.00000387","PERIAPSIS":"545.784","LAUNCH_DATE":"2020-10-06","CENTER_NAME":"EARTH","APOAPSIS":"548.673","EPHEMERIS_TYPE":"0","CLASSIFICATION_TYPE":"U","ARG_OF_PERICENTER":"77.0717","ELEMENT_SET_NO":"999","GP_ID":"192675005","BSTAR":"0.00004489000000","MEAN_ELEMENT_THEORY":"SGP4","ECCENTRICITY":"0.00020860","OBJECT_ID":"2020-070M","MEAN_MOTION":"15.06395156","COUNTRY_CODE":"US","FILE":"3254265","SITE":"AFETR","MEAN_MOTION_DDOT":"0.0000000000000","DECAY_DATE":null},{"MEAN_ANOMALY":"282.4542","REV_AT_EPOCH":"6883","PERIOD":"95.593","MEAN_MOTION_DOT":"0.00002877","LAUNCH_DATE":"2020-10-06","PERIAPSIS":"545.802","REF_FRAME":"TEME","OBJECT_TYPE":"PAYLOAD","TLE_LINE2":"2 46544  53.0533 198.1773 0002071  77.6679 282.4542 15.06392505 68830","NORAD_CAT_ID":"46544","SEMIMAJOR_AXIS":"6925.372","TIME_SYSTEM":"UTC","OBJECT_NAME":"STARLINK-1694","TLE_LINE1":"1 46544U 20070N   21362.88066639  .00002877  00000-0  21204-3 0  9998","RA_OF_ASC_NODE":"198.1773","RCS_SIZE":"LARGE","INCLINATION":"53.0533","EPOCH":"2021-12-28T21:08:09.576096","SITE":"AFETR","FILE":"3254265","COUNTRY_CODE":"US","MEAN_MOTION_DDOT":"0.0000000000000","DECAY_DATE":null,"CLASSIFICATION_TYPE":"U","ARG_OF_PERICENTER":"77.6679","ELEMENT_SET_NO":"999","GP_ID":"192675756","APOAPSIS":"548.671","CENTER_NAME":"EARTH","EPHEMERIS_TYPE":"0","ECCENTRICITY":"0.00020710","MEAN_MOTION":"15.06392505","OBJECT_ID":"2020-070N","BSTAR":"0.00021204000000","MEAN_ELEMENT_THEORY":"SGP4"},{"REV_AT_EPOCH":"6861","MEAN_ANOMALY":"283.5206","REF_FRAME":"TEME","OBJECT_TYPE":"PAYLOAD","PERIOD":"95.592","MEAN_MOTION_DOT":"0.00003371","LAUNCH_DATE":"2020-10-06","PERIAPSIS":"545.670","TLE_LINE1":"1 46545U 20070P   21362.85531779  .00003371  00000-0  24511-3 0  9992","RA_OF_ASC_NODE":"213.3009","RCS_SIZE":"LARGE","SEMIMAJOR_AXIS":"6925.352","TLE_LINE2":"2 46545  53.0534 213.3009 0002234  76.6032 283.5206 15.06398979 68613","NORAD_CAT_ID":"46545","TIME_SYSTEM":"UTC","OBJECT_NAME":"STARLINK-1696","EPOCH":"2021-12-28T20:31:39.457056","INCLINATION":"53.0534","COUNTRY_CODE":"US","SITE":"AFETR","FILE":"3254265","MEAN_MOTION_DDOT":"0.0000000000000","DECAY_DATE":null,"CENTER_NAME":"EARTH","APOAPSIS":"548.764","EPHEMERIS_TYPE":"0","CLASSIFICATION_TYPE":"U","ARG_OF_PERICENTER":"76.6032","ELEMENT_SET_NO":"999","GP_ID":"192674004","MEAN_ELEMENT_THEORY":"SGP4","BSTAR":"0.00024511000000","ECCENTRICITY":"0.00022340","MEAN_MOTION":"15.06398979","OBJECT_ID":"2020-070P"},{"NORAD_CAT_ID":"46546","TLE_LINE2":"2 46546  53.0535 213.0542 0002089  73.2003 286.9215 15.06391497 68629","SEMIMAJOR_AXIS":"6925.375","TIME_SYSTEM":"UTC","OBJECT_NAME":"STARLINK-1697","RCS_SIZE":"LARGE","RA_OF_ASC_NODE":"213.0542","TLE_LINE1":"1 46546U 20070Q   21362.90691413 -.00000091  00000-0  12819-4 0  9997","INCLINATION":"53.0535","EPOCH":"2021-12-28T21:45:57.380832","MEAN_ANOMALY":"286.9215","REV_AT_EPOCH":"6862","MEAN_MOTION_DOT":"-0.00000091","PERIOD":"95.593","PERIAPSIS":"545.793","LAUNCH_DATE":"2020-10-06","OBJECT_TYPE":"PAYLOAD","REF_FRAME":"TEME","ELEMENT_SET_NO":"999","CLASSIFICATION_TYPE":"U","ARG_OF_PERICENTER":"73.2003","GP_ID":"192674754","EPHEMERIS_TYPE":"0","APOAPSIS":"548.686","CENTER_NAME":"EARTH","MEAN_MOTION":"15.06391497","OBJECT_ID":"2020-070Q","ECCENTRICITY":"0.00020890","MEAN_ELEMENT_THEORY":"SGP4","BSTAR":"0.00001281900000","FILE":"3254265","SITE":"AFETR","COUNTRY_CODE":"US","MEAN_MOTION_DDOT":"0.0000000000000","DECAY_DATE":null},{"COUNTRY_CODE":"US","FILE":"3254265","SITE":"AFETR","DECAY_DATE":null,"MEAN_MOTION_DDOT":"0.0000000000000","EPHEMERIS_TYPE":"0","APOAPSIS":"548.633","CENTER_NAME":"EARTH","GP_ID":"192675506","ELEMENT_SET_NO":"999","ARG_OF_PERICENTER":"74.6073","CLASSIFICATION_TYPE":"U","MEAN_ELEMENT_THEORY":"SGP4","BSTAR":"0.00000928750000","MEAN_MOTION":"15.06395152","OBJECT_ID":"2020-070R","ECCENTRICITY":"0.00020280","REV_AT_EPOCH":"6862","MEAN_ANOMALY":"285.5139","OBJECT_TYPE":"PAYLOAD","REF_FRAME":"TEME","PERIAPSIS":"545.824","LAUNCH_DATE":"2020-10-06","MEAN_MOTION_DOT":"-0.00000143","PERIOD":"95.592","RCS_SIZE":"LARGE","TLE_LINE1":"1 46547U 20070R   21362.87005350 -.00000143  00000-0  92875-5 0  9992","RA_OF_ASC_NODE":"213.2257","TIME_SYSTEM":"UTC","OBJECT_NAME":"STARLINK-1698","TLE_LINE2":"2 46547  53.0529 213.2257 0002028  74.6073 285.5139 15.06395152 68625","NORAD_CAT_ID":"46547","SEMIMAJOR_AXIS":"6925.363","EPOCH":"2021-12-28T20:52:52.622400","INCLINATION":"53.0529"},{"MEAN_ELEMENT_THEORY":"SGP4","BSTAR":"0.00002707100000","ECCENTRICITY":"0.00026560","MEAN_MOTION":"15.06390353","OBJECT_ID":"2020-070S","APOAPSIS":"549.083","CENTER_NAME":"EARTH","EPHEMERIS_TYPE":"0","CLASSIFICATION_TYPE":"U","ARG_OF_PERICENTER":"76.5117","ELEMENT_SET_NO":"999","GP_ID":"192675256","MEAN_MOTION_DDOT":"0.0000000000000","DECAY_DATE":null,"COUNTRY_CODE":"US","SITE":"AFETR","FILE":"3254265","EPOCH":"2021-12-28T21:08:48.044832","INCLINATION":"53.0530","TLE_LINE1":"1 46548U 20070S   21362.88111163  .00000121  00000-0  27071-4 0  9994","RA_OF_ASC_NODE":"213.1851","RCS_SIZE":"LARGE","NORAD_CAT_ID":"46548","TLE_LINE2":"2 46548  53.0530 213.1851 0002656  76.5117 283.6168 15.06390353 68623","SEMIMAJOR_AXIS":"6925.378","TIME_SYSTEM":"UTC","OBJECT_NAME":"STARLINK-1699","REF_FRAME":"TEME","OBJECT_TYPE":"PAYLOAD","PERIOD":"95.593","MEAN_MOTION_DOT":"0.00000121","LAUNCH_DATE":"2020-10-06","PERIAPSIS":"545.404","REV_AT_EPOCH":"6862","MEAN_ANOMALY":"283.6168"},{"MEAN_ELEMENT_THEORY":"SGP4","BSTAR":"0.00000751580000","OBJECT_ID":"2020-070T","MEAN_MOTION":"15.06392762","ECCENTRICITY":"0.00023760","EPHEMERIS_TYPE":"0","CENTER_NAME":"EARTH","APOAPSIS":"548.881","ELEMENT_SET_NO":"999","ARG_OF_PERICENTER":"76.8781","CLASSIFICATION_TYPE":"U","GP_ID":"192674505","MEAN_MOTION_DDOT":"0.0000000000000","DECAY_DATE":null,"COUNTRY_CODE":"US","FILE":"3254265","SITE":"AFETR","EPOCH":"2021-12-28T21:51:15.464160","INCLINATION":"53.0516","RCS_SIZE":"LARGE","RA_OF_ASC_NODE":"213.0446","TLE_LINE1":"1 46549U 20070T   21362.91059565 -.00000170  00000-0  75158-5 0  9991","SEMIMAJOR_AXIS":"6925.371","TLE_LINE2":"2 46549  53.0516 213.0446 0002376  76.8781 283.2473 15.06392762 68627","NORAD_CAT_ID":"46549","TIME_SYSTEM":"UTC","OBJECT_NAME":"STARLINK-1700","OBJECT_TYPE":"PAYLOAD","REF_FRAME":"TEME","MEAN_MOTION_DOT":"-0.00000170","PERIOD":"95.593","LAUNCH_DATE":"2020-10-06","PERIAPSIS":"545.590","REV_AT_EPOCH":"6862","MEAN_ANOMALY":"283.2473"},{"OBJECT_NAME":"STARLINK-1701","TIME_SYSTEM":"UTC","NORAD_CAT_ID":"46550","TLE_LINE2":"2 46550  53.0528 213.1108 0002085  72.2945 287.8271 15.06402497 68620","SEMIMAJOR_AXIS":"6925.341","TLE_LINE1":"1 46550U 20070U   21362.89584773  .00000852  00000-0  76096-4 0  9991","RA_OF_ASC_NODE":"213.1108","RCS_SIZE":"LARGE","INCLINATION":"53.0528","EPOCH":"2021-12-28T21:30:01.243872","MEAN_ANOMALY":"287.8271","REV_AT_EPOCH":"6862","PERIAPSIS":"545.762","LAUNCH_DATE":"2020-10-06","PERIOD":"95.592","MEAN_MOTION_DOT":"0.00000852","REF_FRAME":"TEME","OBJECT_TYPE":"PAYLOAD","GP_ID":"192674254","ARG_OF_PERICENTER":"72.2945","CLASSIFICATION_TYPE":"U","ELEMENT_SET_NO":"999","CENTER_NAME":"EARTH","APOAPSIS":"548.650","EPHEMERIS_TYPE":"0","ECCENTRICITY":"0.00020850","MEAN_MOTION":"15.06402497","OBJECT_ID":"2020-070U","BSTAR":"0.00007609600000","MEAN_ELEMENT_THEORY":"SGP4","FILE":"3254265","SITE":"AFETR","COUNTRY_CODE":"US","DECAY_DATE":null,"MEAN_MOTION_DDOT":"0.0000000000000"},{"MEAN_MOTION_DDOT":"0.0000000000000","DECAY_DATE":null,"FILE":"3254265","SITE":"AFETR","COUNTRY_CODE":"US","MEAN_MOTION":"15.06384924","OBJECT_ID":"2020-070W","ECCENTRICITY":"0.00022760","MEAN_ELEMENT_THEORY":"SGP4","BSTAR":"-0.00002747200000","ELEMENT_SET_NO":"999","ARG_OF_PERICENTER":"80.4891","CLASSIFICATION_TYPE":"U","GP_ID":"192675006","EPHEMERIS_TYPE":"0","APOAPSIS":"548.836","CENTER_NAME":"EARTH","MEAN_MOTION_DOT":"-0.00000691","PERIOD":"95.593","LAUNCH_DATE":"2020-10-06","PERIAPSIS":"545.684","OBJECT_TYPE":"PAYLOAD","REF_FRAME":"TEME","MEAN_ANOMALY":"279.6355","REV_AT_EPOCH":"6884","INCLINATION":"53.0528","EPOCH":"2021-12-28T22:06:31.288608","TLE_LINE2":"2 46552  53.0528 197.9919 0002276  80.4891 279.6355 15.06384924 68844","NORAD_CAT_ID":"46552","SEMIMAJOR_AXIS":"6925.395","TIME_SYSTEM":"UTC","OBJECT_NAME":"STARLINK-1649","RCS_SIZE":"LARGE","RA_OF_ASC_NODE":"197.9919","TLE_LINE1":"1 46552U 20070W   21362.92119547 -.00000691  00000-0 -27472-4 0  9997"}];
